{
  "type": "FeatureCollection",
  "name": "gis.vn",
  "features": [
    {
      "type": "Feature",
      "properties": {
        "ma_tinh": "48",
        "ten_tinh": "Đà Nẵng",
        "sap_nhap": "Đà Nẵng, Quảng Nam",
        "quy_mo": "94 đơn vị (23 phường, 70 xã và 1 đặc khu Hoàng Sa)",
        "tru_so": "Số 24 Trần Phú, Hải Châu, Đà Nẵng",
        "loai": "Thành phố",
        "cap": 1,
        "stt": 21,
        "dtich_km2": 11913.08,
        "dan_so": 3122915,
        "matdo_km2": 262.14
      },
      "geometry": {
        "type": "Polygon",
        "coordinates": [
          [
            [
              108.150337,
              15.002121
            ],
            [
              108.157912,
              14.991465
            ],
            [
              108.161792,
              14.972958
            ],
            [
              108.148709,
              14.961174
            ],
            [
              108.140971,
              14.959149
            ],
            [
              108.135817,
              14.962006
            ],
            [
              108.130927,
              14.959073
            ],
            [
              108.125112,
              14.961093
            ],
            [
              108.117183,
              14.959112
            ],
            [
              108.106271,
              14.951316
            ],
            [
              108.091772,
              14.952596
            ],
            [
              108.084463,
              14.95754
            ],
            [
              108.081283,
              14.966271
            ],
            [
              108.077013,
              14.969123
            ],
            [
              108.060417,
              14.972128
            ],
            [
              108.048696,
              14.986525
            ],
            [
              108.047529,
              14.992295
            ],
            [
              108.022413,
              14.998602
            ],
            [
              108.017099,
              15.002584
            ],
            [
              108.008489,
              14.997124
            ],
            [
              108.003574,
              15.002252
            ],
            [
              107.989869,
              14.999506
            ],
            [
              107.982949,
              15.010344
            ],
            [
              107.972071,
              15.012048
            ],
            [
              107.95679,
              15.037107
            ],
            [
              107.959645,
              15.043293
            ],
            [
              107.949997,
              15.052838
            ],
            [
              107.960674,
              15.063322
            ],
            [
              107.97619,
              15.069326
            ],
            [
              107.979612,
              15.085718
            ],
            [
              107.98882,
              15.09581
            ],
            [
              107.993042,
              15.110664
            ],
            [
              108.002155,
              15.118831
            ],
            [
              107.998405,
              15.128342
            ],
            [
              108.004693,
              15.142211
            ],
            [
              107.999564,
              15.150854
            ],
            [
              107.999339,
              15.156685
            ],
            [
              107.986131,
              15.159479
            ],
            [
              107.981535,
              15.16659
            ],
            [
              107.950366,
              15.175121
            ],
            [
              107.948285,
              15.186557
            ],
            [
              107.93707,
              15.190645
            ],
            [
              107.928081,
              15.209769
            ],
            [
              107.91443,
              15.211948
            ],
            [
              107.911325,
              15.206825
            ],
            [
              107.899499,
              15.204941
            ],
            [
              107.889833,
              15.193787
            ],
            [
              107.880078,
              15.197145
            ],
            [
              107.872257,
              15.210289
            ],
            [
              107.837524,
              15.207154
            ],
            [
              107.829961,
              15.208532
            ],
            [
              107.819307,
              15.2162
            ],
            [
              107.808961,
              15.211807
            ],
            [
              107.788699,
              15.219171
            ],
            [
              107.780657,
              15.219062
            ],
            [
              107.774475,
              15.223397
            ],
            [
              107.771822,
              15.230826
            ],
            [
              107.755655,
              15.23673
            ],
            [
              107.747194,
              15.229827
            ],
            [
              107.735024,
              15.230561
            ],
            [
              107.733722,
              15.234512
            ],
            [
              107.736618,
              15.233376
            ],
            [
              107.739117,
              15.237424
            ],
            [
              107.735295,
              15.241427
            ],
            [
              107.732073,
              15.261434
            ],
            [
              107.726969,
              15.268064
            ],
            [
              107.73027,
              15.27049
            ],
            [
              107.727057,
              15.288586
            ],
            [
              107.730037,
              15.295853
            ],
            [
              107.727766,
              15.302983
            ],
            [
              107.730875,
              15.307342
            ],
            [
              107.723972,
              15.307951
            ],
            [
              107.707896,
              15.30298
            ],
            [
              107.692884,
              15.317494
            ],
            [
              107.691639,
              15.324796
            ],
            [
              107.6791,
              15.334542
            ],
            [
              107.676816,
              15.344021
            ],
            [
              107.66892,
              15.345538
            ],
            [
              107.663115,
              15.353988
            ],
            [
              107.664047,
              15.365633
            ],
            [
              107.659459,
              15.372963
            ],
            [
              107.660207,
              15.388375
            ],
            [
              107.654393,
              15.397801
            ],
            [
              107.642457,
              15.405967
            ],
            [
              107.637948,
              15.415708
            ],
            [
              107.631292,
              15.4175
            ],
            [
              107.624008,
              15.414534
            ],
            [
              107.62094,
              15.417684
            ],
            [
              107.61094,
              15.41734
            ],
            [
              107.603517,
              15.421414
            ],
            [
              107.599923,
              15.414687
            ],
            [
              107.589748,
              15.413019
            ],
            [
              107.573884,
              15.397728
            ],
            [
              107.560923,
              15.39443
            ],
            [
              107.54638,
              15.405337
            ],
            [
              107.530884,
              15.40518
            ],
            [
              107.518493,
              15.416144
            ],
            [
              107.519283,
              15.425193
            ],
            [
              107.522722,
              15.427509
            ],
            [
              107.527242,
              15.442224
            ],
            [
              107.522225,
              15.446413
            ],
            [
              107.522462,
              15.457207
            ],
            [
              107.515851,
              15.460353
            ],
            [
              107.517814,
              15.464253
            ],
            [
              107.513729,
              15.473189
            ],
            [
              107.497957,
              15.475571
            ],
            [
              107.492755,
              15.479176
            ],
            [
              107.478135,
              15.477851
            ],
            [
              107.47758,
              15.48146
            ],
            [
              107.482479,
              15.48635
            ],
            [
              107.481387,
              15.490794
            ],
            [
              107.470411,
              15.498874
            ],
            [
              107.463002,
              15.500066
            ],
            [
              107.461168,
              15.497967
            ],
            [
              107.453957,
              15.503584
            ],
            [
              107.438501,
              15.503718
            ],
            [
              107.430415,
              15.499849
            ],
            [
              107.431871,
              15.492009
            ],
            [
              107.42951,
              15.490137
            ],
            [
              107.422134,
              15.49357
            ],
            [
              107.415694,
              15.490677
            ],
            [
              107.414949,
              15.495267
            ],
            [
              107.409633,
              15.491496
            ],
            [
              107.40774,
              15.494225
            ],
            [
              107.399135,
              15.492485
            ],
            [
              107.392631,
              15.495877
            ],
            [
              107.381902,
              15.493489
            ],
            [
              107.374474,
              15.531195
            ],
            [
              107.364498,
              15.547893
            ],
            [
              107.364738,
              15.570313
            ],
            [
              107.359553,
              15.572419
            ],
            [
              107.352602,
              15.568973
            ],
            [
              107.350847,
              15.57342
            ],
            [
              107.344956,
              15.57264
            ],
            [
              107.342456,
              15.576151
            ],
            [
              107.346613,
              15.579017
            ],
            [
              107.345865,
              15.584218
            ],
            [
              107.353016,
              15.58825
            ],
            [
              107.353564,
              15.591436
            ],
            [
              107.348465,
              15.601893
            ],
            [
              107.341749,
              15.603362
            ],
            [
              107.34329,
              15.614185
            ],
            [
              107.334609,
              15.622183
            ],
            [
              107.31652,
              15.626414
            ],
            [
              107.292057,
              15.623162
            ],
            [
              107.27725,
              15.63312
            ],
            [
              107.274484,
              15.644049
            ],
            [
              107.277831,
              15.652207
            ],
            [
              107.264828,
              15.65435
            ],
            [
              107.264083,
              15.658373
            ],
            [
              107.26719,
              15.670484
            ],
            [
              107.271054,
              15.672411
            ],
            [
              107.276297,
              15.681882
            ],
            [
              107.272998,
              15.688083
            ],
            [
              107.277341,
              15.696446
            ],
            [
              107.272052,
              15.70182
            ],
            [
              107.276673,
              15.706905
            ],
            [
              107.271562,
              15.706606
            ],
            [
              107.265511,
              15.711175
            ],
            [
              107.265977,
              15.720971
            ],
            [
              107.252517,
              15.721731
            ],
            [
              107.249572,
              15.725176
            ],
            [
              107.249718,
              15.731767
            ],
            [
              107.254425,
              15.738301
            ],
            [
              107.248833,
              15.744577
            ],
            [
              107.223134,
              15.74287
            ],
            [
              107.213551,
              15.738665
            ],
            [
              107.211519,
              15.756785
            ],
            [
              107.217334,
              15.760318
            ],
            [
              107.219109,
              15.776781
            ],
            [
              107.229868,
              15.783421
            ],
            [
              107.225817,
              15.800569
            ],
            [
              107.22895,
              15.804443
            ],
            [
              107.210762,
              15.826725
            ],
            [
              107.220326,
              15.82977
            ],
            [
              107.221341,
              15.835616
            ],
            [
              107.232021,
              15.837843
            ],
            [
              107.2336,
              15.843575
            ],
            [
              107.248414,
              15.838642
            ],
            [
              107.257493,
              15.848699
            ],
            [
              107.269856,
              15.851246
            ],
            [
              107.270986,
              15.858828
            ],
            [
              107.275673,
              15.861594
            ],
            [
              107.283013,
              15.857734
            ],
            [
              107.289854,
              15.865653
            ],
            [
              107.298428,
              15.869303
            ],
            [
              107.302854,
              15.865939
            ],
            [
              107.312139,
              15.873265
            ],
            [
              107.315824,
              15.884503
            ],
            [
              107.328814,
              15.890095
            ],
            [
              107.333522,
              15.887816
            ],
            [
              107.348525,
              15.894024
            ],
            [
              107.362161,
              15.891599
            ],
            [
              107.364556,
              15.896247
            ],
            [
              107.3713,
              15.897987
            ],
            [
              107.385136,
              15.886688
            ],
            [
              107.387493,
              15.892339
            ],
            [
              107.398866,
              15.893965
            ],
            [
              107.401643,
              15.899265
            ],
            [
              107.40671,
              15.901109
            ],
            [
              107.409263,
              15.909815
            ],
            [
              107.415463,
              15.912364
            ],
            [
              107.419663,
              15.926436
            ],
            [
              107.428193,
              15.930387
            ],
            [
              107.426806,
              15.936409
            ],
            [
              107.432547,
              15.956733
            ],
            [
              107.447201,
              15.982137
            ],
            [
              107.44323,
              15.990383
            ],
            [
              107.450818,
              15.991377
            ],
            [
              107.456187,
              16.005481
            ],
            [
              107.464263,
              16.015216
            ],
            [
              107.465607,
              16.023118
            ],
            [
              107.47337,
              16.033018
            ],
            [
              107.484288,
              16.035484
            ],
            [
              107.486583,
              16.040857
            ],
            [
              107.496154,
              16.039149
            ],
            [
              107.512826,
              16.016063
            ],
            [
              107.525192,
              16.016498
            ],
            [
              107.546365,
              16.010674
            ],
            [
              107.560439,
              16.021904
            ],
            [
              107.558392,
              16.025373
            ],
            [
              107.560353,
              16.031054
            ],
            [
              107.552299,
              16.041601
            ],
            [
              107.553183,
              16.044619
            ],
            [
              107.57185,
              16.055676
            ],
            [
              107.595752,
              16.056232
            ],
            [
              107.61973,
              16.064055
            ],
            [
              107.626108,
              16.049282
            ],
            [
              107.620019,
              16.038629
            ],
            [
              107.621287,
              16.032062
            ],
            [
              107.632306,
              16.03101
            ],
            [
              107.647582,
              16.02345
            ],
            [
              107.650709,
              16.019215
            ],
            [
              107.664091,
              16.018655
            ],
            [
              107.672412,
              16.011589
            ],
            [
              107.677033,
              15.999098
            ],
            [
              107.704928,
              15.994675
            ],
            [
              107.72456,
              16.008094
            ],
            [
              107.728188,
              16.018705
            ],
            [
              107.726667,
              16.030559
            ],
            [
              107.738751,
              16.0393
            ],
            [
              107.757291,
              16.043407
            ],
            [
              107.761471,
              16.049494
            ],
            [
              107.769864,
              16.051408
            ],
            [
              107.775171,
              16.060066
            ],
            [
              107.7739,
              16.066911
            ],
            [
              107.781553,
              16.06237
            ],
            [
              107.788262,
              16.068128
            ],
            [
              107.808504,
              16.053176
            ],
            [
              107.815654,
              16.053249
            ],
            [
              107.824779,
              16.070114
            ],
            [
              107.821649,
              16.07782
            ],
            [
              107.826884,
              16.09004
            ],
            [
              107.832289,
              16.09297
            ],
            [
              107.837101,
              16.101134
            ],
            [
              107.845483,
              16.104645
            ],
            [
              107.856183,
              16.114428
            ],
            [
              107.854325,
              16.123107
            ],
            [
              107.860198,
              16.135182
            ],
            [
              107.857599,
              16.138673
            ],
            [
              107.860468,
              16.1473
            ],
            [
              107.858731,
              16.153124
            ],
            [
              107.865987,
              16.157405
            ],
            [
              107.873479,
              16.157919
            ],
            [
              107.874978,
              16.160688
            ],
            [
              107.876246,
              16.169958
            ],
            [
              107.867433,
              16.182939
            ],
            [
              107.877346,
              16.189037
            ],
            [
              107.875417,
              16.196785
            ],
            [
              107.888129,
              16.200347
            ],
            [
              107.889968,
              16.206252
            ],
            [
              107.895503,
              16.205239
            ],
            [
              107.906074,
              16.214499
            ],
            [
              107.913497,
              16.214537
            ],
            [
              107.929704,
              16.197417
            ],
            [
              107.956113,
              16.189172
            ],
            [
              107.96967,
              16.194158
            ],
            [
              107.988269,
              16.214219
            ],
            [
              108.005641,
              16.205247
            ],
            [
              108.015178,
              16.194055
            ],
            [
              108.03655,
              16.191523
            ],
            [
              108.059352,
              16.179163
            ],
            [
              108.064194,
              16.184146
            ],
            [
              108.092807,
              16.1803
            ],
            [
              108.10051,
              16.187129
            ],
            [
              108.111365,
              16.181967
            ],
            [
              108.1206,
              16.181598
            ],
            [
              108.143723,
              16.198973
            ],
            [
              108.155762,
              16.200361
            ],
            [
              108.157105,
              16.206177
            ],
            [
              108.171074,
              16.201304
            ],
            [
              108.177521,
              16.205757
            ],
            [
              108.194929,
              16.20977
            ],
            [
              108.194442,
              16.199427
            ],
            [
              108.178997,
              16.200127
            ],
            [
              108.17341,
              16.193733
            ],
            [
              108.164762,
              16.194034
            ],
            [
              108.155817,
              16.190429
            ],
            [
              108.152713,
              16.180807
            ],
            [
              108.153977,
              16.172196
            ],
            [
              108.15101,
              16.167912
            ],
            [
              108.15349,
              16.161505
            ],
            [
              108.140934,
              16.164112
            ],
            [
              108.136799,
              16.157503
            ],
            [
              108.139254,
              16.144686
            ],
            [
              108.136187,
              16.141095
            ],
            [
              108.126481,
              16.142485
            ],
            [
              108.122787,
              16.139825
            ],
            [
              108.12542,
              16.125144
            ],
            [
              108.123289,
              16.123413
            ],
            [
              108.134594,
              16.117732
            ],
            [
              108.131877,
              16.117199
            ],
            [
              108.131662,
              16.112921
            ],
            [
              108.144498,
              16.097625
            ],
            [
              108.164907,
              16.082644
            ],
            [
              108.189145,
              16.07361
            ],
            [
              108.201343,
              16.074038
            ],
            [
              108.206581,
              16.081617
            ],
            [
              108.207069,
              16.088884
            ],
            [
              108.213015,
              16.091301
            ],
            [
              108.214851,
              16.096269
            ],
            [
              108.217623,
              16.093742
            ],
            [
              108.22185,
              16.095873
            ],
            [
              108.219966,
              16.108742
            ],
            [
              108.213714,
              16.122898
            ],
            [
              108.220546,
              16.124565
            ],
            [
              108.221718,
              16.131026
            ],
            [
              108.228455,
              16.135586
            ],
            [
              108.231855,
              16.14282
            ],
            [
              108.230498,
              16.14978
            ],
            [
              108.234427,
              16.147487
            ],
            [
              108.239692,
              16.149079
            ],
            [
              108.248124,
              16.155518
            ],
            [
              108.257222,
              16.153541
            ],
            [
              108.269705,
              16.139985
            ],
            [
              108.271034,
              16.134977
            ],
            [
              108.275023,
              16.133215
            ],
            [
              108.283686,
              16.137954
            ],
            [
              108.287776,
              16.136946
            ],
            [
              108.305368,
              16.123124
            ],
            [
              108.310397,
              16.125047
            ],
            [
              108.31286,
              16.142033
            ],
            [
              108.316458,
              16.144747
            ],
            [
              108.323796,
              16.140971
            ],
            [
              108.338424,
              16.117811
            ],
            [
              108.320782,
              16.116696
            ],
            [
              108.311755,
              16.112447
            ],
            [
              108.310001,
              16.098336
            ],
            [
              108.306269,
              16.095829
            ],
            [
              108.295162,
              16.105721
            ],
            [
              108.286479,
              16.10393
            ],
            [
              108.280251,
              16.097347
            ],
            [
              108.273721,
              16.098804
            ],
            [
              108.267654,
              16.094973
            ],
            [
              108.263813,
              16.1021
            ],
            [
              108.259216,
              16.101455
            ],
            [
              108.253552,
              16.096757
            ],
            [
              108.248806,
              16.085717
            ],
            [
              108.246428,
              16.068879
            ],
            [
              108.249652,
              16.049606
            ],
            [
              108.285769,
              15.973218
            ],
            [
              108.305303,
              15.945038
            ],
            [
              108.323528,
              15.926796
            ],
            [
              108.376329,
              15.893052
            ],
            [
              108.389374,
              15.881958
            ],
            [
              108.389414,
              15.86806
            ],
            [
              108.395895,
              15.871191
            ],
            [
              108.405317,
              15.867145
            ],
            [
              108.404607,
              15.851307
            ],
            [
              108.412876,
              15.814785
            ],
            [
              108.425173,
              15.789355
            ],
            [
              108.460814,
              15.729255
            ],
            [
              108.530166,
              15.622613
            ],
            [
              108.578692,
              15.558602
            ],
            [
              108.621496,
              15.512044
            ],
            [
              108.636312,
              15.503325
            ],
            [
              108.659292,
              15.495782
            ],
            [
              108.674382,
              15.506884
            ],
            [
              108.673474,
              15.515391
            ],
            [
              108.67878,
              15.511879
            ],
            [
              108.682392,
              15.5059
            ],
            [
              108.677485,
              15.504255
            ],
            [
              108.673659,
              15.488887
            ],
            [
              108.677761,
              15.481076
            ],
            [
              108.686618,
              15.486158
            ],
            [
              108.692268,
              15.482532
            ],
            [
              108.694333,
              15.472073
            ],
            [
              108.701662,
              15.458217
            ],
            [
              108.697405,
              15.452047
            ],
            [
              108.697199,
              15.440151
            ],
            [
              108.739287,
              15.398639
            ],
            [
              108.718855,
              15.372509
            ],
            [
              108.710158,
              15.370833
            ],
            [
              108.701291,
              15.373175
            ],
            [
              108.698527,
              15.369709
            ],
            [
              108.680264,
              15.366865
            ],
            [
              108.679749,
              15.369575
            ],
            [
              108.676487,
              15.369206
            ],
            [
              108.671598,
              15.363825
            ],
            [
              108.661884,
              15.369948
            ],
            [
              108.65956,
              15.366079
            ],
            [
              108.655062,
              15.368816
            ],
            [
              108.649981,
              15.366047
            ],
            [
              108.641978,
              15.367941
            ],
            [
              108.629356,
              15.356585
            ],
            [
              108.622761,
              15.357602
            ],
            [
              108.615114,
              15.353114
            ],
            [
              108.602919,
              15.352582
            ],
            [
              108.601153,
              15.345157
            ],
            [
              108.596552,
              15.343952
            ],
            [
              108.592031,
              15.347158
            ],
            [
              108.587436,
              15.341901
            ],
            [
              108.579796,
              15.345275
            ],
            [
              108.560158,
              15.334429
            ],
            [
              108.552517,
              15.336593
            ],
            [
              108.537811,
              15.330484
            ],
            [
              108.533241,
              15.331623
            ],
            [
              108.53322,
              15.32755
            ],
            [
              108.526691,
              15.320135
            ],
            [
              108.515477,
              15.321727
            ],
            [
              108.507647,
              15.326181
            ],
            [
              108.502506,
              15.325206
            ],
            [
              108.497763,
              15.322284
            ],
            [
              108.494906,
              15.314956
            ],
            [
              108.484232,
              15.308021
            ],
            [
              108.478455,
              15.309409
            ],
            [
              108.477535,
              15.312451
            ],
            [
              108.475032,
              15.310068
            ],
            [
              108.46106,
              15.309449
            ],
            [
              108.437437,
              15.313379
            ],
            [
              108.434131,
              15.32586
            ],
            [
              108.431562,
              15.325919
            ],
            [
              108.426706,
              15.31574
            ],
            [
              108.416037,
              15.306697
            ],
            [
              108.406594,
              15.310698
            ],
            [
              108.403236,
              15.308979
            ],
            [
              108.402686,
              15.300278
            ],
            [
              108.39277,
              15.298379
            ],
            [
              108.378765,
              15.303414
            ],
            [
              108.365897,
              15.297641
            ],
            [
              108.364261,
              15.294395
            ],
            [
              108.342385,
              15.298535
            ],
            [
              108.336158,
              15.296658
            ],
            [
              108.321974,
              15.301851
            ],
            [
              108.31437,
              15.298404
            ],
            [
              108.299379,
              15.278897
            ],
            [
              108.305498,
              15.274138
            ],
            [
              108.303053,
              15.258529
            ],
            [
              108.293002,
              15.252831
            ],
            [
              108.290495,
              15.246408
            ],
            [
              108.280967,
              15.243665
            ],
            [
              108.284465,
              15.235714
            ],
            [
              108.289381,
              15.234065
            ],
            [
              108.286003,
              15.22669
            ],
            [
              108.304768,
              15.227395
            ],
            [
              108.307861,
              15.224559
            ],
            [
              108.304502,
              15.209801
            ],
            [
              108.292631,
              15.202397
            ],
            [
              108.291097,
              15.198632
            ],
            [
              108.293243,
              15.195153
            ],
            [
              108.302177,
              15.193064
            ],
            [
              108.303313,
              15.188201
            ],
            [
              108.299635,
              15.182047
            ],
            [
              108.306102,
              15.174511
            ],
            [
              108.30461,
              15.171089
            ],
            [
              108.294923,
              15.168383
            ],
            [
              108.288851,
              15.160545
            ],
            [
              108.289646,
              15.157752
            ],
            [
              108.282835,
              15.153174
            ],
            [
              108.281162,
              15.144081
            ],
            [
              108.276326,
              15.142455
            ],
            [
              108.279121,
              15.139971
            ],
            [
              108.274388,
              15.136714
            ],
            [
              108.274992,
              15.130755
            ],
            [
              108.263228,
              15.124092
            ],
            [
              108.262111,
              15.119055
            ],
            [
              108.257399,
              15.116105
            ],
            [
              108.259651,
              15.102689
            ],
            [
              108.257402,
              15.090828
            ],
            [
              108.251046,
              15.084284
            ],
            [
              108.234965,
              15.078292
            ],
            [
              108.241988,
              15.064921
            ],
            [
              108.237943,
              15.049326
            ],
            [
              108.242951,
              15.042074
            ],
            [
              108.240659,
              15.033141
            ],
            [
              108.230093,
              15.03255
            ],
            [
              108.224507,
              15.029354
            ],
            [
              108.211665,
              15.032324
            ],
            [
              108.199689,
              15.043921
            ],
            [
              108.194399,
              15.040297
            ],
            [
              108.191824,
              15.048862
            ],
            [
              108.177237,
              15.060125
            ],
            [
              108.162346,
              15.061129
            ],
            [
              108.146281,
              15.045721
            ],
            [
              108.151839,
              15.037298
            ],
            [
              108.14966,
              15.033562
            ],
            [
              108.153022,
              15.027671
            ],
            [
              108.148982,
              15.022523
            ],
            [
              108.152092,
              15.009262
            ],
            [
              108.150337,
              15.002121
            ]
          ]
        ]
      }
    }
  ]
}